#dP2018  4  6  0  0  0.00000000      96 __u+U IGS08 FIT  IAC
## 1995 432000.00000000   900.00000000 58214 0.0000000000000
+   87   C01C02C03C04C05C06C07C08C09C10C11C12C13C14E01E02E03
+        E04E05E07E08E09E11E12E14E18E19E24E26E30G01G02G03G05
+        G06G07G09G10G11G12G13G14G15G16G17G18G19G20G21G22G23
+        G24G25G26G27G28G29G30G31G32J01J02J03R01R02R03R04R05
+        R06R07R08R09R10R11R13R14R15R16R17R18R19R20R21R22R23
+        R24R26  0  0  0  0  0  0  0  0  0  0  0  0  0  0  0
++        13 11 12 11  0  8  8  8  7  8  7  7  8  7  7  7  7
++         7  7  7  7  7  7  7  7  7  7  7  7  7  3  3  3  3
++         3  3  3  3  3  3  3  3  3  3  3  3  3  3  3  3  3
++         3  3  3  3  3  3  3  3  3  9 11 13  5  5  5  5  7
++         5  5  5  7  5  5  5  5  5  5  5  5  5  5  5  5  5
++         5  8  0  0  0  0  0  0  0  0  0  0  0  0  0  0  0
%c M  cc GPS ccc cccc cccc cccc cccc ccccc ccccc ccccc ccccc
%c cc cc ccc ccc cccc cccc cccc cccc ccccc ccccc ccccc ccccc
%f  1.2500000  1.025000000  0.00000000000  0.000000000000000
%f  0.0000000  0.000000000  0.00000000000  0.000000000000000
%i    0    0    0    0      0      0      0      0         0
%i    0    0    0    0      0      0      0      0         0
/* INFORMATION & ANALYSIS CENTER (IAC)            FINAL DATA
/* S/V CLOCKS ARE ALIGNED TO GPS & GLONASS TIME RESPECTIVELY
/* USING THE BROADCAST EPHEMERIS                            
/* PCV:IGS14_1992 OL/AL:FES2004  NONE     YN ORB:CoN CLK:CoN
*  2018 04 06 14 45  0.00000000
PC01 -32347.146417  27037.345942   -350.876703    577.815878
PC02   4412.531533  41923.637014   1061.850972    624.778407
PC03 -14804.196619  39527.192186    422.693822   -181.308199
PC04 -39588.383448  14512.975532    103.564030     14.669578
PC05  21781.101302  36094.552890   1271.286012 999999.999999
PC06 -23343.217492  33818.088720  -9888.091257    788.262392
PC07  -7632.611057  33925.550479 -23418.521904    904.992358
PC08 -16322.059417  18012.409115  34483.675054    271.040875
PC09 -10579.171811  33149.630049 -23881.586863   -245.497621
PC10   2385.545655  39584.191461 -13713.781776   -137.882071
PC11  22570.765912 -12161.259244 -11043.457850   -457.386665
PC12  26909.549921   -699.478669   7581.318353    408.293655
PC13    737.475134  24183.251048  34571.577170   -277.590827
PC14  15651.406087 -18861.063657 -13230.859803    366.770614
PE01 -16243.826434   2623.124060 -24611.157775   -315.435455
PE02  16234.823839  -2634.153509  24605.024964      9.783679
PE03  22721.994838 -12443.183450 -14322.886401    -18.002775
PE04 -16118.595318  24576.819549  -3533.757804     -9.089221
PE05  16032.448959   7041.141340 -23860.846879    289.713322
PE07     10.414365 -22349.369228  19419.554734     54.974369
PE08  15897.601525 -24722.130246   3541.363961   6609.624358
PE09     64.626073  22295.207350 -19456.331266   6827.677453
PE11   9931.574911  16542.634692  22442.832375   1837.501226
PE12 -12964.054061  13771.989436  22785.398813   3878.006257
PE14  16644.219494   6491.171048  15293.544821   6603.486995
PE18 -20367.353552 -11634.598153 -22482.762876   6302.339874
PE19 -22540.820760  10882.446603  15812.639306     21.066866
PE24   9206.176387  27996.674666  -2887.818028   6773.447655
PE26 -26363.505676  -9851.421539  -9166.545376   6080.729055
PE30   4978.614128 -21751.565335  19429.628102   5942.248090
PG01 -22796.794209 -13885.668025   1156.440367    -38.914242
PG02   7116.465352  18853.668097  17987.487657    152.549676
PG03 -12933.203892 -12755.262933  19379.219651     44.925275
PG05   2703.831575  25891.720436  -4770.268707    -10.453034
PG06  -6827.202157  13442.391550  21900.231312    410.010976
PG07 -22038.188028  -2289.358354 -14762.525476    211.647710
PG09 -24503.346540   6966.413914   7505.731823    510.126425
PG10  11082.223001 -19106.534894 -14596.150154    176.817199
PG11 -23363.091232  -9990.025439  -8027.778074   -737.519220
PG12  10607.679655  15618.677532  18578.522085    341.137611
PG13   2414.961727  15101.100726 -21830.028492    -95.243881
PG14  12176.961954 -17366.377580  16166.015229    -95.901977
PG15  14334.212502   9252.588752 -20641.851503   -355.747253
PG16    -31.964459 -25857.208376  -5124.561202     28.407329
PG17 -19196.259845  15756.498242   9625.469035   -109.326225
PG18 -18843.260074 -17423.915184  -7656.183393     -6.570292
PG19 -14794.382096  16417.293854  14588.556338   -445.619467
PG20  15726.455778   6901.858588 -20424.696075    505.109590
PG21  20478.387192  -1609.495244 -16037.085988   -410.689471
PG22 -10948.313709 -19697.169190  14299.103956   -348.684538
PG23 -20009.693830  -3749.371773  17550.561798   -218.148791
PG24  22015.874794  14961.460952  -2404.411545    -48.221520
PG25  14814.972455    663.645319  21855.991922   -565.350431
PG26   5057.627845 -25284.750797   6056.731804   -191.919437
PG27   1369.680831 -16504.885078 -20772.200235    370.212211
PG28 -12926.256849  16108.508092 -16103.927028    703.829600
PG29  24178.559621  -3003.469630  10536.333664    470.560026
PG30 -16467.435031   5973.272341 -20005.580793     87.490926
PG31   6094.263226 -14089.467458  21678.687527    130.342860
PG32  19325.846961 -16384.204655   7861.452030   -523.029534
PJ01 -28130.635941  27414.070805  20408.058042   -316.944999
PJ02 -21197.266739  18240.594521 -27279.156016      0.547635
PJ03 -29563.435435  30033.195148   7352.918082    -16.276055
PR01   1399.617140 -19648.679943  16219.242746     24.436576
PR02 -10757.810711  -2969.322469  22978.992191    303.482198
PR03 -15500.964934  14001.108034  14710.487907    128.730459
PR04 -10916.285749  22919.246039  -2557.572330    256.120874
PR05   -174.397365  18623.858997 -17430.272580   -278.282176
PR06  11335.180265   2070.930545 -22762.497627    130.048923
PR07  15468.225587 -14323.125405 -14300.695254    -34.466384
PR08  11207.675948 -22828.070410   2026.166036     22.756648
PR09  16192.056469  14311.113939  13512.102299     36.556616
PR10  11128.632133  -1860.646781  22843.041329     21.975158
PR11   -235.344510 -17537.003353  18547.321601    -25.797902
PR13 -16335.410465 -13815.685631 -13915.936081     -9.155685
PR14 -11505.994197   1716.720366 -22695.881350     26.094345
PR15  -2164.433548  14835.987620 -20666.324309     -8.369435
PR16  11622.170188  22357.854803  -4367.091213     89.591107
PR17 -24211.035463   3808.294175   7034.636933    122.586861
PR18 -12292.309263   9547.801094  20249.029201    190.917312
PR19   6715.043374  10118.670497  22434.481371    -49.308435
PR20  22715.686540   4697.507449  10556.364173   -333.382820
PR21  24132.924770  -3926.243795  -7294.622451     21.961148
PR22  10176.786369  -9836.441019 -21177.474095    -32.678180
PR23 -10709.683715  -9392.038482 -21166.086718    146.120832
PR24 -23229.849289  -3964.954902  -9811.730738   -164.647256
PR26  22604.822264   4474.594276  10971.169930     10.583632
EOF
